ISS  TRAJECTORY DATA

Lift off time (UTC)  :  N/A
Area (sq ft)  :  21963.7584
Drag Coefficient (Cd)  :   2.00
Monthly MSFC 50% solar flux (F10.7-jansky)  :   91.9
Monthly MSFC 50% earth geomagnetic index (Kp)  :   2.315
ET - UTC  (sec) :   68.18
UT1 - UTC (sec) :    0.00


Maneuvers contained within the current ephemeris are as follows:


IMPULSIVE TIG (GMT)   M50 DVx(FPS)      LVLH DVx(FPS)      DVmag(FPS) 
IMPULSIVE TIG (MET)   M50 DVy(FPS)      LVLH DVy(FPS)      Invar Sph HA
DT                    M50 DVz(FPS)      LVLH DVz(FPS)      Invar Sph HP 
------------------------------------------------------------------------
229/22:24:00.000           0.0               0.0              0.0    
N/A                        0.0               0.0              220.0  
000/00:00:00.000           0.0               0.0              212.9  

233/21:10:00.000           0.0               0.0              0.0    
N/A                        0.0               0.0              219.9  
000/00:00:00.000           0.0               0.0              212.9  

237/07:37:09.920           1.4               4.6              4.6    
N/A                        4.4              -0.5              219.8  
000/00:14:15.840           0.4              -0.0              215.9  

239/10:03:00.000           0.0               0.0              0.0    
N/A                        0.0               0.0              219.6  
000/00:00:00.000           0.0               0.0              215.9  



Coasting Arc #1 (Orbit 1373)
---------------------------------------

Vector Time (GMT): 2016/225/10:49:40.629
Vector Time (MET): N/A
Weight (LBS)     : 930011.2

		  M50 Cartesian                         M50 Keplerian  
-----------------------------------       --------------------------------
 X    =       -5633400.16                 A    =         6782309.00  meter
 Y    =        1804050.29  meter          E    =           .0014190
 Z    =        3306256.08                 I    =           51.89800
 XDOT =        874.656997                 Wp   =           91.34957
 YDOT =      -5975.400815  meter/sec      RA   =          136.24748  deg
 ZDOT =       4732.941964                 TA   =          306.96777
										  MA   =          307.09760
										  Ha   =            220.310  n.mi
										  Hp   =            212.806

		  M50 Cartesian                         J2K Cartesian  
-----------------------------------       --------------------------------
 X    =      -18482283.99                 X    =        -5669215.05
 Y    =        5918800.16  feet           Y    =         1740853.56  meter
 Z    =       10847296.85                 Z    =         3278803.70
 XDOT =       2869.609570                 XDOT =         918.420045
 YDOT =     -19604.333381  feet/sec       YDOT =       -5965.375165  meter/sec
 ZDOT =      15528.024817                 ZDOT =        4737.297031

		  TDR Cartesian                         TDR Cartesian  
-----------------------------------       --------------------------------
 X    =       15044411.65                 X    =         4585536.67
 Y    =       12364727.22  feet           Y    =         3768768.86  meter
 Z    =       10727071.58                 Z    =         3269611.42
 XDOT =     -17063.470159                 XDOT =       -5200.945705
 YDOT =       7221.431897  feet/sec       YDOT =        2201.092442  meter/sec
 ZDOT =      15548.032532                 ZDOT =        4739.040316


The mean element set is posted at the UTC for which position is
just north of the next ascending node relative to the above
vector time


TWO LINE MEAN ELEMENT SET

ISS
1 25544U 98067A   16225.50865708  .00016717  00000-0  10270-3 0  9002
2 25544  51.6412 137.0030 0001691 117.7742 242.3582 15.54983006 13743


Satellite: ISS
Catalog Number: 25544
Epoch time:      16225.50865708   =   yrday.fracday
Element set:     900
Inclination:       51.6412  deg
RA of node:       137.0030  deg
Eccentricity:     .0001691     
Arg of perigee:   117.7742  deg
Mean anomaly:     242.3582  deg
Mean motion:   15.54983006  rev/day
Decay rate:    1.67170E-04  rev/day^2
Epoch rev:            1374
Checksum:              289


Coasting Arc #2 (Orbit 1388)
---------------------------------------

Vector Time (GMT): 2016/226/10:49:40.629
Vector Time (MET): N/A
Weight (LBS)     : 930011.2

		  M50 Cartesian                         M50 Keplerian  
-----------------------------------       --------------------------------
 X    =        4957295.94                 A    =         6777810.22  meter
 Y    =        -145425.33  meter          E    =           .0011335
 Z    =       -4630636.07                 I    =           51.90718
 XDOT =      -2610.931598                 Wp   =           76.41420
 YDOT =       6545.182559  meter/sec      RA   =          131.27139  deg
 ZDOT =      -3004.238326                 TA   =          163.71566
										  MA   =          163.67921
										  Ha   =            220.184  n.mi
										  Hp   =            212.871

		  M50 Cartesian                         J2K Cartesian  
-----------------------------------       --------------------------------
 X    =       16264094.29                 X    =         4981047.07
 Y    =        -477117.22  feet           Y    =          -89856.65  meter
 Z    =      -15192375.57                 Z    =        -4606497.35
 XDOT =      -8566.048549                 XDOT =       -2669.334300
 YDOT =      21473.696060  feet/sec       YDOT =        6515.658880  meter/sec
 ZDOT =      -9856.424954                 ZDOT =       -3017.063177

		  TDR Cartesian                         TDR Cartesian  
-----------------------------------       --------------------------------
 X    =       -9516455.77                 X    =        -2900615.72
 Y    =      -13318392.91  feet           Y    =        -4059446.16  meter
 Z    =      -15086886.99                 Z    =        -4598483.15
 XDOT =      21595.925873                 XDOT =        6582.438206
 YDOT =      -4214.487212  feet/sec       YDOT =       -1284.575702  meter/sec
 ZDOT =      -9913.542480                 ZDOT =       -3021.647748


The mean element set is posted at the UTC for which position is
just north of the next ascending node relative to the above
vector time


TWO LINE MEAN ELEMENT SET

ISS
1 25544U 98067A   16226.47265341  .00016717  00000-0  10270-3 0  9017
2 25544  51.6425 132.1913 0001649 117.4648 242.6673 15.55009939 13893


Satellite: ISS
Catalog Number: 25544
Epoch time:      16226.47265341   =   yrday.fracday
Element set:     901
Inclination:       51.6425  deg
RA of node:       132.1913  deg
Eccentricity:     .0001649     
Arg of perigee:   117.4648  deg
Mean anomaly:     242.6673  deg
Mean motion:   15.55009939  rev/day
Decay rate:    1.67170E-04  rev/day^2
Epoch rev:            1389
Checksum:              314


Coasting Arc #3 (Orbit 1404)
---------------------------------------

Vector Time (GMT): 2016/227/10:49:40.629
Vector Time (MET): N/A
Weight (LBS)     : 930011.2

		  M50 Cartesian                         M50 Keplerian  
-----------------------------------       --------------------------------
 X    =       -3908491.78                 A    =         6774957.50  meter
 Y    =       -1661216.76  meter          E    =           .0004934
 Z    =        5275380.68                 I    =           51.91857
 XDOT =       3946.660048                 Wp   =          122.19825
 YDOT =      -6523.127706  meter/sec      RA   =          126.28586  deg
 ZDOT =        866.767035                 TA   =          319.53255
										  MA   =          319.56923
										  Ha   =            220.192  n.mi
										  Hp   =            212.768

		  M50 Cartesian                         J2K Cartesian  
-----------------------------------       --------------------------------
 X    =      -12823135.77                 X    =        -3915250.32
 Y    =       -5450186.21  feet           Y    =        -1704962.01  meter
 Z    =       17307679.39                 Z    =         5256378.02
 XDOT =      12948.359737                 XDOT =        4015.099667
 YDOT =     -21401.337619  feet/sec       YDOT =       -6478.610863  meter/sec
 ZDOT =       2843.723868                 ZDOT =         886.104762

		  TDR Cartesian                         TDR Cartesian  
-----------------------------------       --------------------------------
 X    =        2921721.53                 X    =          890540.72
 Y    =       13728025.31  feet           Y    =         4184302.11  meter
 Z    =       17224922.96                 Z    =         5250156.52
 XDOT =     -23949.949256                 XDOT =       -7299.944533
 YDOT =       1408.716397  feet/sec       YDOT =         429.376758  meter/sec
 ZDOT =       2929.310596                 ZDOT =         892.853870


The mean element set is posted at the UTC for which position is
just north of the next ascending node relative to the above
vector time


TWO LINE MEAN ELEMENT SET

ISS
1 25544U 98067A   16227.50090779  .00016717  00000-0  10270-3 0  9024
2 25544  51.6425 127.0597 0001537 124.7838 235.3460 15.55039461 14057


Satellite: ISS
Catalog Number: 25544
Epoch time:      16227.50090779   =   yrday.fracday
Element set:     902
Inclination:       51.6425  deg
RA of node:       127.0597  deg
Eccentricity:     .0001537     
Arg of perigee:   124.7838  deg
Mean anomaly:     235.3460  deg
Mean motion:   15.55039461  rev/day
Decay rate:    1.67170E-04  rev/day^2
Epoch rev:            1405
Checksum:              305


Coasting Arc #4 (Orbit 1419)
---------------------------------------

Vector Time (GMT): 2016/228/10:49:40.629
Vector Time (MET): N/A
Weight (LBS)     : 930011.2

